[{"OBJECT_NAME":"STARLINK-4618","OBJECT_ID":"2022-107AM","EPOCH":"2026-03-09T19:20:54.533472","MEAN_MOTION":15.08855213,"ECCENTRICITY":0.00010578,"INCLINATION":53.2167,"RA_OF_ASC_NODE":263.4124,"ARG_OF_PERICENTER":70.1068,"MEAN_ANOMALY":290.0038,"EPHEMERIS_TYPE":0,"CLASSIFICATION_TYPE":"U","NORAD_CAT_ID":53735,"ELEMENT_SET_NO":999,"REV_AT_EPOCH":19446,"BSTAR":-0.00022594121,"MEAN_MOTION_DOT":-3.883e-5,"MEAN_MOTION_DDOT":0},{"OBJECT_NAME":"LEMUR-2-THERMORAPTOR","OBJECT_ID":"2025-061D","EPOCH":"2026-03-09T21:59:50.013312","MEAN_MOTION":15.13256334,"ECCENTRICITY":0.00176188,"INCLINATION":97.562,"RA_OF_ASC_NODE":45.6468,"ARG_OF_PERICENTER":235.5571,"MEAN_ANOMALY":124.3996,"EPHEMERIS_TYPE":0,"CLASSIFICATION_TYPE":"U","NORAD_CAT_ID":63354,"ELEMENT_SET_NO":999,"REV_AT_EPOCH":5259,"BSTAR":0.00030402789,"MEAN_MOTION_DOT":5.359e-5,"MEAN_MOTION_DDOT":0}]
